#dP2023  2 17 12  0  0.00000000      96 __u+U ITR00 EXT  IAC
## 2249 475200.00000000   900.00000000 59992 0.5000000000000
+  119   C06C07C08C09C10C11C12C13C14C16C19C20C21C22C23C24C25
+        C26C27C28C29C30C32C33C34C35C36C37C38C39C40C41C42C43
+        C44C45C46E01E02E03E04E05E07E08E09E10E11E12E13E14E15
+        E18E19E21E24E25E26E27E30E31E33E34E36G01G02G03G04G05
+        G06G07G08G09G10G11G12G13G14G15G17G18G19G20G21G22G23
+        G24G25G26G27G28G29G30G31G32J02J03J04R01R02R03R04R05
+        R07R08R09R11R12R13R14R15R16R17R18R19R20R21R22R24R25
++         0  0  0  0  0  7 11  0  9  0  7  9  8  8  7  8 10
++         9  8  7 10  7  9 10  9  8  9  7  0  0  0 10  8 10
++         9  8  8  7  6  8  7  8  8  7  8  7  8  7  7  7  6
++         7  7  7  6  6  8  6  7  6  7  6  8  6  7  6  8  7
++         7  5  7  7  7  6  7  7  6  8  7  6  8  6  7  6  7
++         7  7  7  6  7  7  6  8  8  9 11  8  8  9  9  9 10
++         7  7  8  8  6  8  7  7  8  8  7 10  8  8  8  7  8
%c M  cc GPS ccc cccc cccc cccc cccc ccccc ccccc ccccc ccccc
%c cc cc ccc ccc cccc cccc cccc cccc ccccc ccccc ccccc ccccc
%f  0.0000000  0.000000000  0.00000000000  0.000000000000000
%f  0.0000000  0.000000000  0.00000000000  0.000000000000000
%i    0    0    0    0      0      0      0      0         0
%i    0    0    0    0      0      0      0      0         0
/* IAC                                ULTRA-RAPID PREDICTION
/* S/V CLOCKS ARE ALIGNED TO GNSS TIME                      
/* G:C1WC2W R:C1PC2P E:C1XC5X C:C2IC6I J:C1CC2S             
/* PCV:IGS20_2247 OL/AL:FES2004  NONE     YN ORB:CoN CLK:CoN
*  2023 02 17 23 30  0.00000000
PC06      0.000000      0.000000      0.000000   -191.499144
PC07      0.000000      0.000000      0.000000     98.682013
PC08      0.000000      0.000000      0.000000    525.423111
PC09      0.000000      0.000000      0.000000    717.945436
PC10      0.000000      0.000000      0.000000      9.045306
PC11 -19711.553120   4624.837304 -19142.222071   -114.697723
PC12 -26118.081599  -8757.486260  -4424.584924    458.720298
PC13      0.000000      0.000000      0.000000    210.282928
PC14 -23003.020399  15770.740504  -1578.753824    492.392569
PC16      0.000000      0.000000      0.000000    159.719911
PC19  17984.466587 -19887.043252  -7672.794627   -894.573907
PC20  24278.875129 -10287.223135   9112.162950    718.857343
PC21 -16393.471671  -6279.615084 -21677.229577   -910.566644
PC22    971.040724 -18466.785601 -20888.614978   -627.506536
PC23   3432.665890  27686.700431   -437.531582   -878.579645
PC24 -16248.634980   1536.279471  22615.127499   -397.432344
PC25  -8002.308241  21983.717064  15182.102242     73.802624
PC26 -14546.363946 -16816.522051  16865.977750    -80.257463
PC27  23976.331207  13750.038533  -3939.041439     98.360705
PC28  10406.800889  18469.806413 -18144.433559     71.680474
PC29  10557.169651 -12657.775573  22513.766022     82.512341
PC30  25001.092983    759.739560  12395.596667      1.124185
PC32  16375.332598   6264.836233  21728.079786   -619.325069
PC33 -17912.343849  20009.694694   7620.410938   -872.700431
PC34 -24460.832657    214.998683 -13415.671688    108.469486
PC35  -9779.404394 -18137.261421  18790.602351    678.730253
PC36   8905.986483 -21305.821511 -15661.055528   -618.226088
PC37  13649.467441  18366.039300 -15950.039312   -818.783812
PC38      0.000000      0.000000      0.000000     59.505136
PC39      0.000000      0.000000      0.000000     -1.853470
PC40      0.000000      0.000000      0.000000    -15.383334
PC41  -1501.825970  18782.910088  20641.503618   -624.592274
PC42 -24224.461605   9398.465435 -10157.857986   -831.088599
PC43 -11421.306429  12307.927204 -22293.470354      7.706616
PC44 -24354.705605 -12953.120362   4078.340228     18.701858
PC45  -3674.828835 -27665.039726    826.264390    -61.774717
PC46  15872.731230  -3629.642111 -22674.540272    -34.150328
PE01  12880.728081 -26652.866300   -561.541125   -600.488449
PE02 -12590.670393  26774.428620    103.813713     21.431382
PE03 -12408.011379  16252.345091  21404.656269   -651.070639
PE04  -9761.879733 -15488.211671 -23251.007408    -60.575322
PE05 -27798.049703   7462.875199   6909.180435    -94.340431
PE07  26672.675823   5645.593422  11527.745650    -23.715716
PE08   9600.696557  15382.657749  23396.555683    -37.801521
PE09 -26591.952164  -5633.936632 -11724.991998   -839.856187
PE10 -18794.963081 -22641.696612  -3201.442611   -513.157932
PE11 -21506.845177 -15460.505154 -13197.762731    927.207167
PE12 -13283.806121 -25679.424423   6292.530306   -426.218376
PE13  21435.517878  16181.029622  12465.905117     -0.334328
PE14  22665.159228   8731.652397  -9765.939280    145.183299
PE15  13139.932261  25689.278279  -6620.544504     -1.850844
PE18 -30938.357563   1232.461710  -3017.923732   -378.606882
PE19  15233.332957 -15414.627335 -20157.865520  -3208.872820
PE21  19453.806551 -14966.455705 -16559.314446   -512.773154
PE24 -15150.818707  -7213.636044  24364.248525  -1120.007664
PE25 -19478.529432  14649.823941  16786.646659   -599.611328
PE26  16778.522829  -3595.590594  24127.183224     21.484763
PE27  15570.834955   6195.218171 -24403.861423   -514.856108
PE30   2010.642871  23895.476060 -17354.860537  -1251.049894
PE31  -2544.982482 -23520.890826  17796.674796   -516.325982
PE33   2877.798123 -19950.420477  21678.861092   -451.704453
PE34  -2691.820964  20072.443907 -21587.944779    -30.647182
PE36 -17070.846116   2699.586961 -24021.245633    -14.000283
PG01  18250.186065   8398.943120  17237.339328    211.381361
PG02 -18218.590957  -3388.454990 -18311.344592   -620.138958
PG03  16973.096470  -3058.794521  20044.601624   -361.853485
PG04  26613.179859    432.202621    552.343372    -25.245840
PG05 -10015.509130 -12931.240180 -21071.666868   -116.315773
PG06  -2620.553021 -22260.212066  14242.929257    573.554317
PG07  13810.949668  -6593.433373 -21291.015607    239.053080
PG08  22780.306715   7151.036851 -12098.757612   -109.011908
PG09  23291.604402  -8246.560306  -9881.224282   -216.284949
PG10 -10778.944825  23967.990497   2575.524584    -25.145887
PG11 -11911.240545 -23712.911975   1518.913690   -107.069236
PG12 -16692.145120    116.257212  20355.264724   -341.610508
PG13 -16480.898678 -13092.900928 -16490.616836    477.764639
PG14  13322.476994 -22895.401974   -101.250050    -24.644982
PG15 -23487.689244  -5057.954186 -12063.622362     14.366001
PG17  12625.217044 -13063.801748  19843.969786    700.683934
PG18 -10987.540568  10496.618620 -21768.654245   -145.032810
PG19    825.816112 -14778.871213  21824.839333    279.102365
PG20  -3599.049762 -22029.325362 -14519.689349    450.062243
PG21  20300.434443  14365.492808  10992.143563    154.047815
PG22   3088.193168  15397.426158  21874.117263    429.147321
PG23 -16257.152552  18874.139573  -8999.117273      6.608046
PG24 -20328.456442 -10926.580964  13151.457177    -78.130735
PG25 -18138.950818  10726.538213  15687.398197    420.976468
PG26  -1831.219383  23920.118912 -11129.679087    241.569160
PG27  13321.646458  12867.290606 -19426.246687     99.908599
PG28   1585.655722  21580.530161  15371.833584     16.548548
PG29 -25287.243337   3858.991755  -7343.031886   -586.686439
PG30   4620.375596 -18444.477263 -18344.127944   -529.949852
PG31   3621.143185  23020.491534  12138.350846   -209.524736
PG32  -8744.198479  14691.997799  20441.260105   -399.337724
PJ02 -32853.980429  24993.466724  13665.281489     -0.936875
PJ03 -24301.945317  17684.691721 -24964.792323      0.298694
PJ04 -25242.771188  33821.717550   5735.213874     94.252472
PR01  21831.773322  -4709.868407  12318.758828     23.231530
PR02  20962.369577 -13212.904753  -6153.209012    -23.260271
PR03   7389.716023 -14075.341587 -19920.372388     72.686982
PR04  -9832.151180  -6887.457830 -22472.884357    176.201944
PR05 -21760.276889   3820.748342 -12711.866816    107.928661
PR07  -6467.512742  13874.322063  20431.158193     50.134363
PR08  10128.833515   6854.277595  22450.679880    -69.510623
PR09  -8894.099214  17450.014353  16397.504187    104.671601
PR11   5994.494201  19852.465779 -14856.517009     -6.078349
PR12  10965.008971   1247.129886 -22979.176146     25.072492
PR13   9345.612851 -15821.373735 -17716.608087    -32.139722
PR14   1750.423785 -25434.335462   -586.784125     24.338888
PR15  -6344.880986 -19083.662397  15703.455957     90.977237
PR16 -10809.128711  -1539.391166  23053.890787     11.394267
PR17  -5056.053650 -14613.025165  20308.033961    605.795139
PR18 -17883.316398 -16531.204946   7507.238829     67.331461
PR19 -21389.197662 -11355.395814  -8005.165233   -222.279548
PR20 -12001.657466   3384.175693 -22232.198683    -87.866407
PR21   6534.976955  15153.370567 -19441.316155   -374.135332
PR22  17731.390079  17136.473084  -6539.340002     71.418193
PR24  11665.357006  -4594.112210  22232.308201    147.595290
PR25   3881.427930  14907.533556 -20320.054793     55.375166
EOF
